[{"OBJECT_NAME":"STARLINK-36992","OBJECT_ID":"2026-049H","EPOCH":"2026-03-28T14:06:20.780928","MEAN_MOTION":15.80883829,"ECCENTRICITY":0.00015572,"INCLINATION":97.284,"RA_OF_ASC_NODE":107.771,"ARG_OF_PERICENTER":117.5652,"MEAN_ANOMALY":242.5774,"EPHEMERIS_TYPE":0,"CLASSIFICATION_TYPE":"U","NORAD_CAT_ID":68149,"ELEMENT_SET_NO":999,"REV_AT_EPOCH":239,"BSTAR":0.00081164248,"MEAN_MOTION_DOT":0.00158677,"MEAN_MOTION_DDOT":0},{"OBJECT_NAME":"STARLINK-37060","OBJECT_ID":"2026-049J","EPOCH":"2026-03-28T14:00:01.999872","MEAN_MOTION":15.80834729,"ECCENTRICITY":0.00013725,"INCLINATION":97.2845,"RA_OF_ASC_NODE":107.7672,"ARG_OF_PERICENTER":81.508,"MEAN_ANOMALY":257.9441,"EPHEMERIS_TYPE":0,"CLASSIFICATION_TYPE":"U","NORAD_CAT_ID":68150,"ELEMENT_SET_NO":999,"REV_AT_EPOCH":365,"BSTAR":-0.00034625832,"MEAN_MOTION_DOT":-0.00066025,"MEAN_MOTION_DDOT":0},{"OBJECT_NAME":"STARLINK-37073","OBJECT_ID":"2026-049K","EPOCH":"2026-03-28T14:00:01.999872","MEAN_MOTION":15.80802725,"ECCENTRICITY":0.00012773,"INCLINATION":97.2844,"RA_OF_ASC_NODE":107.7699,"ARG_OF_PERICENTER":78.8215,"MEAN_ANOMALY":264.9199,"EPHEMERIS_TYPE":0,"CLASSIFICATION_TYPE":"U","NORAD_CAT_ID":68151,"ELEMENT_SET_NO":999,"REV_AT_EPOCH":365,"BSTAR":-5.9948546e-5,"MEAN_MOTION_DOT":-0.00011602,"MEAN_MOTION_DDOT":0},{"OBJECT_NAME":"STARLINK-37049","OBJECT_ID":"2026-049L","EPOCH":"2026-03-28T14:00:01.999872","MEAN_MOTION":15.80791513,"ECCENTRICITY":0.00013341,"INCLINATION":97.2847,"RA_OF_ASC_NODE":107.7719,"ARG_OF_PERICENTER":103.4991,"MEAN_ANOMALY":244.5198,"EPHEMERIS_TYPE":0,"CLASSIFICATION_TYPE":"U","NORAD_CAT_ID":68152,"ELEMENT_SET_NO":999,"REV_AT_EPOCH":365,"BSTAR":2.0890336e-5,"MEAN_MOTION_DOT":3.857e-5,"MEAN_MOTION_DDOT":0},{"OBJECT_NAME":"STARLINK-37072","OBJECT_ID":"2026-049M","EPOCH":"2026-03-28T14:00:01.999872","MEAN_MOTION":15.80841279,"ECCENTRICITY":0.00011923,"INCLINATION":97.2845,"RA_OF_ASC_NODE":107.7727,"ARG_OF_PERICENTER":104.0217,"MEAN_ANOMALY":248.2493,"EPHEMERIS_TYPE":0,"CLASSIFICATION_TYPE":"U","NORAD_CAT_ID":68153,"ELEMENT_SET_NO":999,"REV_AT_EPOCH":365,"BSTAR":-0.00042816553,"MEAN_MOTION_DOT":-0.00081488,"MEAN_MOTION_DDOT":0},{"OBJECT_NAME":"STARLINK-36241","OBJECT_ID":"2026-049N","EPOCH":"2026-03-28T20:00:01.999008","MEAN_MOTION":15.7517068,"ECCENTRICITY":0.0001373,"INCLINATION":97.2847,"RA_OF_ASC_NODE":108.0263,"ARG_OF_PERICENTER":93.8677,"MEAN_ANOMALY":208.526,"EPHEMERIS_TYPE":0,"CLASSIFICATION_TYPE":"U","NORAD_CAT_ID":68154,"ELEMENT_SET_NO":999,"REV_AT_EPOCH":370,"BSTAR":-2.6892e-5,"MEAN_MOTION_DOT":-4.135e-5,"MEAN_MOTION_DDOT":0},{"OBJECT_NAME":"STARLINK-37048","OBJECT_ID":"2026-049P","EPOCH":"2026-03-28T20:00:01.999008","MEAN_MOTION":15.80800113,"ECCENTRICITY":0.0001306,"INCLINATION":97.2843,"RA_OF_ASC_NODE":108.0456,"ARG_OF_PERICENTER":80.4359,"MEAN_ANOMALY":270.7218,"EPHEMERIS_TYPE":0,"CLASSIFICATION_TYPE":"U","NORAD_CAT_ID":68155,"ELEMENT_SET_NO":999,"REV_AT_EPOCH":369,"BSTAR":4.5574e-5,"MEAN_MOTION_DOT":8.59e-5,"MEAN_MOTION_DDOT":0},{"OBJECT_NAME":"STARLINK-36313","OBJECT_ID":"2026-049Q","EPOCH":"2026-03-28T20:00:01.999008","MEAN_MOTION":15.8078625,"ECCENTRICITY":0.000127,"INCLINATION":97.2848,"RA_OF_ASC_NODE":108.0436,"ARG_OF_PERICENTER":69.6914,"MEAN_ANOMALY":277.1914,"EPHEMERIS_TYPE":0,"CLASSIFICATION_TYPE":"U","NORAD_CAT_ID":68156,"ELEMENT_SET_NO":999,"REV_AT_EPOCH":370,"BSTAR":0.00028402,"MEAN_MOTION_DOT":0.00054528,"MEAN_MOTION_DDOT":0},{"OBJECT_NAME":"STARLINK-37064","OBJECT_ID":"2026-049R","EPOCH":"2026-03-28T20:00:01.999008","MEAN_MOTION":15.80803835,"ECCENTRICITY":0.0001055,"INCLINATION":97.2846,"RA_OF_ASC_NODE":108.0407,"ARG_OF_PERICENTER":100.3833,"MEAN_ANOMALY":237.9453,"EPHEMERIS_TYPE":0,"CLASSIFICATION_TYPE":"U","NORAD_CAT_ID":68157,"ELEMENT_SET_NO":999,"REV_AT_EPOCH":369,"BSTAR":0.00016551,"MEAN_MOTION_DOT":0.00031659,"MEAN_MOTION_DDOT":0},{"OBJECT_NAME":"STARLINK-37069","OBJECT_ID":"2026-049S","EPOCH":"2026-03-28T20:00:01.999008","MEAN_MOTION":15.75165913,"ECCENTRICITY":0.0001209,"INCLINATION":97.2856,"RA_OF_ASC_NODE":108.0341,"ARG_OF_PERICENTER":96.2009,"MEAN_ANOMALY":226.1941,"EPHEMERIS_TYPE":0,"CLASSIFICATION_TYPE":"U","NORAD_CAT_ID":68158,"ELEMENT_SET_NO":999,"REV_AT_EPOCH":369,"BSTAR":0.00017372,"MEAN_MOTION_DOT":0.00025833,"MEAN_MOTION_DDOT":0},{"OBJECT_NAME":"STARLINK-37053","OBJECT_ID":"2026-049T","EPOCH":"2026-03-28T20:00:01.999008","MEAN_MOTION":15.80830672,"ECCENTRICITY":0.0001225,"INCLINATION":97.2845,"RA_OF_ASC_NODE":108.0506,"ARG_OF_PERICENTER":85.5011,"MEAN_ANOMALY":278.4843,"EPHEMERIS_TYPE":0,"CLASSIFICATION_TYPE":"U","NORAD_CAT_ID":68159,"ELEMENT_SET_NO":999,"REV_AT_EPOCH":369,"BSTAR":-0.00034268,"MEAN_MOTION_DOT":-0.00065336,"MEAN_MOTION_DDOT":0},{"OBJECT_NAME":"STARLINK-36306","OBJECT_ID":"2026-049U","EPOCH":"2026-03-28T20:00:01.999008","MEAN_MOTION":15.7517266,"ECCENTRICITY":0.0001147,"INCLINATION":97.2843,"RA_OF_ASC_NODE":108.0436,"ARG_OF_PERICENTER":86.8072,"MEAN_ANOMALY":257.5632,"EPHEMERIS_TYPE":0,"CLASSIFICATION_TYPE":"U","NORAD_CAT_ID":68160,"ELEMENT_SET_NO":999,"REV_AT_EPOCH":370,"BSTAR":1.4199e-5,"MEAN_MOTION_DOT":1.987e-5,"MEAN_MOTION_DDOT":0},{"OBJECT_NAME":"STARLINK-37057","OBJECT_ID":"2026-049V","EPOCH":"2026-03-28T20:00:01.999008","MEAN_MOTION":15.80823449,"ECCENTRICITY":0.0001318,"INCLINATION":97.2842,"RA_OF_ASC_NODE":108.0481,"ARG_OF_PERICENTER":104.8711,"MEAN_ANOMALY":250.5452,"EPHEMERIS_TYPE":0,"CLASSIFICATION_TYPE":"U","NORAD_CAT_ID":68161,"ELEMENT_SET_NO":999,"REV_AT_EPOCH":369,"BSTAR":0.00036611,"MEAN_MOTION_DOT":0.00070578,"MEAN_MOTION_DDOT":0},{"OBJECT_NAME":"STARLINK-37013","OBJECT_ID":"2026-049W","EPOCH":"2026-03-28T20:00:01.999008","MEAN_MOTION":15.80837097,"ECCENTRICITY":0.0001248,"INCLINATION":97.2845,"RA_OF_ASC_NODE":108.0604,"ARG_OF_PERICENTER":97.7891,"MEAN_ANOMALY":287.5791,"EPHEMERIS_TYPE":0,"CLASSIFICATION_TYPE":"U","NORAD_CAT_ID":68162,"ELEMENT_SET_NO":999,"REV_AT_EPOCH":369,"BSTAR":-2.9595e-5,"MEAN_MOTION_DOT":-5.812e-5,"MEAN_MOTION_DDOT":0},{"OBJECT_NAME":"STARLINK-36958","OBJECT_ID":"2026-049X","EPOCH":"2026-03-28T20:00:01.999008","MEAN_MOTION":15.80817492,"ECCENTRICITY":0.0001369,"INCLINATION":97.2846,"RA_OF_ASC_NODE":108.0564,"ARG_OF_PERICENTER":79.7491,"MEAN_ANOMALY":297.0343,"EPHEMERIS_TYPE":0,"CLASSIFICATION_TYPE":"U","NORAD_CAT_ID":68163,"ELEMENT_SET_NO":999,"REV_AT_EPOCH":369,"BSTAR":1.2368e-6,"MEAN_MOTION_DOT":9.5e-7,"MEAN_MOTION_DDOT":0},{"OBJECT_NAME":"STARLINK-37002","OBJECT_ID":"2026-049Y","EPOCH":"2026-03-28T20:00:01.999008","MEAN_MOTION":15.80764444,"ECCENTRICITY":0.0001494,"INCLINATION":97.2845,"RA_OF_ASC_NODE":108.0547,"ARG_OF_PERICENTER":94.9108,"MEAN_ANOMALY":277.6328,"EPHEMERIS_TYPE":0,"CLASSIFICATION_TYPE":"U","NORAD_CAT_ID":68164,"ELEMENT_SET_NO":999,"REV_AT_EPOCH":369,"BSTAR":0.00035298,"MEAN_MOTION_DOT":0.00067839,"MEAN_MOTION_DDOT":0}]
