STARLINK-36992          
1 68149U 26049H   26087.58774052  .00158677  00000+0  81164-3 0  9996
2 68149  97.2840 107.7710 0001557 117.5652 242.5774 15.80883829  2395
STARLINK-37060          
1 68150U 26049J   26087.58335648 -.00066025  00000+0 -34626-3 0  9990
2 68150  97.2845 107.7672 0001372  81.5080 257.9441 15.80834729  3655
STARLINK-37073          
1 68151U 26049K   26087.58335648 -.00011602  00000+0 -59949-4 0  9998
2 68151  97.2844 107.7699 0001277  78.8215 264.9199 15.80802725  3656
STARLINK-37049          
1 68152U 26049L   26087.58335648  .00003857  00000+0  20890-4 0  9993
2 68152  97.2847 107.7719 0001334 103.4991 244.5198 15.80791513  3658
STARLINK-37072          
1 68153U 26049M   26087.58335648 -.00081488  00000+0 -42817-3 0  9994
2 68153  97.2845 107.7727 0001192 104.0217 248.2493 15.80841279  3650
STARLINK-36241          
1 68154U 26049N   26087.83335647 -.00004135  00000+0 -26892-4 0  9992
2 68154  97.2847 108.0263 0001373  93.8677 208.5260 15.75170680  3700
STARLINK-37048          
1 68155U 26049P   26087.83335647  .00008590  00000+0  45574-4 0  9998
2 68155  97.2843 108.0456 0001306  80.4359 270.7218 15.80800113  3695
STARLINK-36313          
1 68156U 26049Q   26087.83335647  .00054528  00000+0  28402-3 0  9991
2 68156  97.2848 108.0436 0001270  69.6914 277.1914 15.80786250  3706
STARLINK-37064          
1 68157U 26049R   26087.83335647  .00031659  00000+0  16551-3 0  9994
2 68157  97.2846 108.0407 0001055 100.3833 237.9453 15.80803835  3696
STARLINK-37069          
1 68158U 26049S   26087.83335647  .00025833  00000+0  17372-3 0  9994
2 68158  97.2856 108.0341 0001209  96.2009 226.1941 15.75165913  3698
STARLINK-37053          
1 68159U 26049T   26087.83335647 -.00065336  00000+0 -34268-3 0  9992
2 68159  97.2845 108.0506 0001225  85.5011 278.4843 15.80830672  3690
STARLINK-36306          
1 68160U 26049U   26087.83335647  .00001987  00000+0  14199-4 0  9996
2 68160  97.2843 108.0436 0001147  86.8072 257.5632 15.75172660  3702
STARLINK-37057          
1 68161U 26049V   26087.83335647  .00070578  00000+0  36611-3 0  9991
2 68161  97.2842 108.0481 0001318 104.8711 250.5452 15.80823449  3698
STARLINK-37013          
1 68162U 26049W   26087.83335647 -.00005812  00000+0 -29595-4 0  9997
2 68162  97.2845 108.0604 0001248  97.7891 287.5791 15.80837097  3690
STARLINK-36958          
1 68163U 26049X   26087.83335647  .00000095  00000+0  12368-5 0  9995
2 68163  97.2846 108.0564 0001369  79.7491 297.0343 15.80817492  3693
STARLINK-37002          
1 68164U 26049Y   26087.83335647  .00067839  00000+0  35298-3 0  9990
2 68164  97.2845 108.0547 0001494  94.9108 277.6328 15.80764444  3692
